{
  "type": "FeatureCollection",
  "name": "rui_li_2026_representative_route_epsg32645",
  "features": [
    {
      "type": "Feature",
      "properties": {
        "name": "Rui Li 2026 representative source-to-port route",
        "crs": "EPSG:32645",
        "vertex_count": 46,
        "planar_length_m": 21843.425064,
        "provenance": "Extracted from vector geometry embedded in Figure 1 of uploaded PDF 2609.04563v2.pdf",
        "interpretation": "Published representative centreline; not a surveyed thalweg or tracked-particle trajectory."
      },
      "geometry": {
        "type": "LineString",
        "coordinates": [
          [
            356076.514348,
            3129773.452394
          ],
          [
            355147.619802,
            3130702.301774
          ],
          [
            354937.867308,
            3130702.301774
          ],
          [
            354788.047647,
            3130852.114661
          ],
          [
            354518.366837,
            3130942.006006
          ],
          [
            353979.009733,
            3130942.006006
          ],
          [
            353379.722055,
            3131541.262068
          ],
          [
            352660.577745,
            3132619.922076
          ],
          [
            352420.862222,
            3132829.663278
          ],
          [
            352121.218383,
            3132979.478423
          ],
          [
            351791.609257,
            3133309.071741
          ],
          [
            351791.609257,
            3133728.549629
          ],
          [
            351462.004647,
            3134207.953576
          ],
          [
            351491.967676,
            3134897.103241
          ],
          [
            351372.111044,
            3135016.95084
          ],
          [
            350473.179527,
            3135016.95084
          ],
          [
            350383.285923,
            3135076.876898
          ],
          [
            350173.537946,
            3135076.876898
          ],
          [
            350023.713768,
            3135196.729013
          ],
          [
            349754.035216,
            3135226.687526
          ],
          [
            349664.143871,
            3135316.581129
          ],
          [
            349514.319694,
            3135316.581129
          ],
          [
            349244.641142,
            3135436.428728
          ],
          [
            348465.568515,
            3135436.428728
          ],
          [
            348405.640199,
            3135376.50267
          ],
          [
            346877.457975,
            3135316.581129
          ],
          [
            346607.779424,
            3135166.765985
          ],
          [
            346368.063901,
            3134927.061753
          ],
          [
            346158.313665,
            3134837.172666
          ],
          [
            345319.310464,
            3134747.288096
          ],
          [
            344959.740567,
            3134507.583865
          ],
          [
            344720.022786,
            3134507.583865
          ],
          [
            344420.378947,
            3134148.027518
          ],
          [
            344390.415918,
            3133728.549629
          ],
          [
            344450.344234,
            3132859.626307
          ],
          [
            344330.485344,
            3132739.774191
          ],
          [
            344330.485344,
            3132530.037506
          ],
          [
            343491.484401,
            3131601.185867
          ],
          [
            343311.697195,
            3131601.185867
          ],
          [
            342862.233694,
            3131151.742692
          ],
          [
            342832.268407,
            3130942.006006
          ],
          [
            341783.517229,
            3129803.417682
          ],
          [
            341663.658338,
            3129863.343739
          ],
          [
            341214.19258,
            3129353.974506
          ],
          [
            340974.479315,
            3129234.124649
          ],
          [
            340900.994467,
            3129256.533688
          ]
        ]
      }
    }
  ]
}