{"type": "FeatureCollection", "features": [{"type": "Feature", "properties": {"resolution_m": 30.0, "corridor_width_m": 768, "n_cells": 79, "maximum_adverse_rise_m": 60.6214599609375, "saddle_elevation_m": 2088.207763671875, "saddle_chainage_m": 16849.372219806282, "maximum_lateral_offset_m": 36.23688868368956, "cumulative_positive_gain_m": 102.8406982421875, "physical_path_length_m": 3122.8636321800022, "wide_maximum_adverse_rise_m": 60.6214599609375, "wide_saddle_elevation_m": 2088.207763671875, "wide_maximum_lateral_offset_m": 36.23688868368956, "wide_sensitivity_adverse_rise_m": 0.0}, "geometry": {"type": "LineString", "coordinates": [[343167.0, 3131425.0], [343137.0, 3131425.0], [343107.0, 3131395.0], [343077.0, 3131365.0], [343047.0, 3131335.0], [343017.0, 3131305.0], [342987.0, 3131275.0], [342957.0, 3131245.0], [342927.0, 3131215.0], [342897.0, 3131185.0], [342867.0, 3131155.0], [342867.0, 3131125.0], [342867.0, 3131095.0], [342867.0, 3131065.0], [342867.0, 3131035.0], [342867.0, 3131005.0], [342867.0, 3130975.0], [342837.0, 3130945.0], [342807.0, 3130915.0], [342777.0, 3130885.0], [342747.0, 3130855.0], [342717.0, 3130825.0], [342687.0, 3130795.0], [342657.0, 3130765.0], [342627.0, 3130735.0], [342627.0, 3130705.0], [342597.0, 3130675.0], [342567.0, 3130645.0], [342537.0, 3130615.0], [342507.0, 3130585.0], [342477.0, 3130555.0], [342447.0, 3130525.0], [342417.0, 3130495.0], [342387.0, 3130465.0], [342357.0, 3130435.0], [342327.0, 3130405.0], [342297.0, 3130375.0], [342267.0, 3130345.0], [342237.0, 3130315.0], [342207.0, 3130285.0], [342177.0, 3130255.0], [342147.0, 3130225.0], [342117.0, 3130195.0], [342087.0, 3130165.0], [342057.0, 3130135.0], [342027.0, 3130105.0], [341997.0, 3130075.0], [341967.0, 3130045.0], [341967.0, 3130015.0], [341937.0, 3129985.0], [341937.0, 3129955.0], [341907.0, 3129925.0], [341877.0, 3129895.0], [341847.0, 3129865.0], [341817.0, 3129835.0], [341787.0, 3129805.0], [341757.0, 3129805.0], [341727.0, 3129805.0], [341697.0, 3129835.0], [341667.0, 3129865.0], [341637.0, 3129835.0], [341607.0, 3129805.0], [341607.0, 3129775.0], [341607.0, 3129745.0], [341577.0, 3129715.0], [341547.0, 3129685.0], [341517.0, 3129655.0], [341487.0, 3129625.0], [341457.0, 3129595.0], [341427.0, 3129565.0], [341397.0, 3129535.0], [341367.0, 3129505.0], [341337.0, 3129475.0], [341307.0, 3129445.0], [341277.0, 3129415.0], [341247.0, 3129385.0], [341217.0, 3129355.0], [341187.0, 3129355.0], [341157.0, 3129325.0]]}}]}