{"type": "FeatureCollection", "features": [{"type": "Feature", "properties": {"resolution_m": 64, "corridor_width_m": 768, "n_cells": 37, "maximum_adverse_rise_m": 63.136108999999806, "saddle_elevation_m": 2089.533936, "saddle_chainage_m": 16869.37221980629, "maximum_lateral_offset_m": 46.849076455739116, "cumulative_positive_gain_m": 97.90295399999968, "physical_path_length_m": 3072.7803710720004, "wide_maximum_adverse_rise_m": 63.136108999999806, "wide_saddle_elevation_m": 2089.533936, "wide_maximum_lateral_offset_m": 46.849076455739116, "wide_sensitivity_adverse_rise_m": 0.0}, "geometry": {"type": "LineString", "coordinates": [[343182.0, 3131452.0], [343118.0, 3131388.0], [343054.0, 3131324.0], [342990.0, 3131260.0], [342926.0, 3131196.0], [342862.0, 3131132.0], [342862.0, 3131068.0], [342862.0, 3131004.0], [342862.0, 3130940.0], [342798.0, 3130876.0], [342734.0, 3130812.0], [342670.0, 3130748.0], [342606.0, 3130684.0], [342542.0, 3130620.0], [342478.0, 3130556.0], [342414.0, 3130492.0], [342350.0, 3130428.0], [342286.0, 3130364.0], [342222.0, 3130300.0], [342158.0, 3130236.0], [342094.0, 3130172.0], [342030.0, 3130108.0], [341966.0, 3130044.0], [341966.0, 3129980.0], [341902.0, 3129916.0], [341838.0, 3129852.0], [341774.0, 3129788.0], [341710.0, 3129788.0], [341646.0, 3129788.0], [341582.0, 3129724.0], [341518.0, 3129660.0], [341454.0, 3129596.0], [341390.0, 3129532.0], [341326.0, 3129468.0], [341262.0, 3129404.0], [341198.0, 3129340.0], [341134.0, 3129340.0]]}}]}