{"type": "FeatureCollection", "features": [{"type": "Feature", "properties": {"resolution_m": 32.0, "corridor_width_m": 768, "n_cells": 74, "maximum_adverse_rise_m": 63.6484375, "saddle_elevation_m": 2088.9365234375, "saddle_chainage_m": 16829.372219806268, "maximum_lateral_offset_m": 127.63955946160034, "cumulative_positive_gain_m": 102.150390625, "physical_path_length_m": 3078.2707031040004, "wide_maximum_adverse_rise_m": 63.6484375, "wide_saddle_elevation_m": 2088.9365234375, "wide_maximum_lateral_offset_m": 127.63955946160034, "wide_sensitivity_adverse_rise_m": 0.0}, "geometry": {"type": "LineString", "coordinates": [[343166.0, 3131436.0], [343134.0, 3131436.0], [343102.0, 3131404.0], [343070.0, 3131372.0], [343038.0, 3131340.0], [343006.0, 3131308.0], [342974.0, 3131276.0], [342942.0, 3131244.0], [342910.0, 3131212.0], [342878.0, 3131180.0], [342878.0, 3131148.0], [342846.0, 3131116.0], [342846.0, 3131084.0], [342814.0, 3131052.0], [342814.0, 3131020.0], [342814.0, 3130988.0], [342814.0, 3130956.0], [342782.0, 3130924.0], [342750.0, 3130892.0], [342718.0, 3130860.0], [342686.0, 3130828.0], [342654.0, 3130796.0], [342622.0, 3130764.0], [342622.0, 3130732.0], [342622.0, 3130700.0], [342590.0, 3130668.0], [342558.0, 3130636.0], [342526.0, 3130604.0], [342494.0, 3130572.0], [342462.0, 3130540.0], [342430.0, 3130508.0], [342398.0, 3130476.0], [342366.0, 3130444.0], [342334.0, 3130412.0], [342302.0, 3130380.0], [342270.0, 3130348.0], [342238.0, 3130316.0], [342206.0, 3130284.0], [342174.0, 3130252.0], [342142.0, 3130220.0], [342110.0, 3130188.0], [342078.0, 3130156.0], [342046.0, 3130124.0], [342014.0, 3130092.0], [341982.0, 3130060.0], [341982.0, 3130028.0], [341950.0, 3129996.0], [341918.0, 3129996.0], [341886.0, 3129996.0], [341854.0, 3129996.0], [341822.0, 3129996.0], [341790.0, 3129996.0], [341758.0, 3129964.0], [341726.0, 3129932.0], [341694.0, 3129900.0], [341662.0, 3129868.0], [341630.0, 3129836.0], [341598.0, 3129804.0], [341598.0, 3129772.0], [341598.0, 3129740.0], [341566.0, 3129708.0], [341534.0, 3129676.0], [341502.0, 3129644.0], [341470.0, 3129612.0], [341438.0, 3129580.0], [341406.0, 3129548.0], [341374.0, 3129516.0], [341342.0, 3129484.0], [341310.0, 3129452.0], [341278.0, 3129420.0], [341246.0, 3129388.0], [341214.0, 3129388.0], [341182.0, 3129356.0], [341150.0, 3129324.0]]}}]}