{"type": "FeatureCollection", "features": [{"type": "Feature", "properties": {"extension_length_m": 2328.6256838944155, "maximum_adverse_rise_m": 13.92175300000008, "boundary_endpoint_xy": [340238.0, 3127228.0], "boundary_endpoint_elevation_m": 1727.047119, "terminal_direction_unit": [-0.8953864607126153, -0.4452898898162142]}, "geometry": {"type": "LineString", "coordinates": [[340814.0, 3129212.0], [340814.0, 3129148.0], [340814.0, 3129084.0], [340814.0, 3129020.0], [340814.0, 3128956.0], [340814.0, 3128892.0], [340814.0, 3128828.0], [340814.0, 3128764.0], [340878.0, 3128700.0], [340814.0, 3128636.0], [340750.0, 3128572.0], [340750.0, 3128508.0], [340750.0, 3128444.0], [340750.0, 3128380.0], [340750.0, 3128316.0], [340750.0, 3128252.0], [340750.0, 3128188.0], [340814.0, 3128124.0], [340750.0, 3128060.0], [340750.0, 3127996.0], [340686.0, 3127932.0], [340686.0, 3127868.0], [340686.0, 3127804.0], [340622.0, 3127740.0], [340558.0, 3127676.0], [340494.0, 3127612.0], [340430.0, 3127548.0], [340366.0, 3127484.0], [340366.0, 3127420.0], [340366.0, 3127356.0], [340302.0, 3127292.0], [340238.0, 3127228.0]]}}]}