{
  "type": "FeatureCollection",
  "features": [
    {
      "type": "Feature",
      "properties": {
        "provenance": "Published representative source-to-port centreline; not surveyed thalweg."
      },
      "geometry": {
        "type": "LineString",
        "coordinates": [
          [
            354426.653264872,
            3130942.006006
          ],
          [
            354417.88268525375,
            3130942.006006
          ],
          [
            354397.88268525375,
            3130942.006006
          ],
          [
            354377.88268525375,
            3130942.006006
          ],
          [
            354357.88268525375,
            3130942.006006
          ],
          [
            354337.88268525375,
            3130942.006006
          ],
          [
            354317.88268525375,
            3130942.006006
          ],
          [
            354297.88268525375,
            3130942.006006
          ],
          [
            354277.88268525375,
            3130942.006006
          ],
          [
            354257.88268525375,
            3130942.006006
          ],
          [
            354237.88268525375,
            3130942.006006
          ],
          [
            354217.88268525375,
            3130942.006006
          ],
          [
            354197.88268525375,
            3130942.006006
          ],
          [
            354177.88268525375,
            3130942.006006
          ],
          [
            354157.88268525375,
            3130942.006006
          ],
          [
            354137.88268525375,
            3130942.006006
          ],
          [
            354117.88268525375,
            3130942.006006
          ],
          [
            354097.88268525375,
            3130942.006006
          ],
          [
            354077.88268525375,
            3130942.006006
          ],
          [
            354057.88268525375,
            3130942.006006
          ],
          [
            354037.88268525375,
            3130942.006006
          ],
          [
            354017.88268525375,
            3130942.006006
          ],
          [
            353997.88268525375,
            3130942.006006
          ],
          [
            353978.2127688739,
            3130942.8029280817
          ],
          [
            353964.07026020426,
            3130956.9446906494
          ],
          [
            353949.92775153456,
            3130971.0864532175
          ],
          [
            353935.7852428649,
            3130985.2282157857
          ],
          [
            353921.6427341953,
            3130999.3699783534
          ],
          [
            353907.5002255256,
            3131013.5117409215
          ],
          [
            353893.35771685594,
            3131027.653503489
          ],
          [
            353879.2152081863,
            3131041.7952660574
          ],
          [
            353865.0726995166,
            3131055.9370286255
          ],
          [
            353850.93019084696,
            3131070.078791193
          ],
          [
            353836.7876821773,
            3131084.2205537613
          ],
          [
            353822.6451735076,
            3131098.362316329
          ],
          [
            353808.502664838,
            3131112.504078897
          ],
          [
            353794.36015616835,
            3131126.6458414653
          ],
          [
            353780.21764749865,
            3131140.787604033
          ],
          [
            353766.075138829,
            3131154.929366601
          ],
          [
            353751.93263015937,
            3131169.071129169
          ],
          [
            353737.79012148967,
            3131183.212891737
          ],
          [
            353723.64761282003,
            3131197.354654305
          ],
          [
            353709.5051041504,
            3131211.496416873
          ],
          [
            353695.3625954807,
            3131225.638179441
          ],
          [
            353681.22008681105,
            3131239.7799420087
          ],
          [
            353667.0775781414,
            3131253.921704577
          ],
          [
            353652.9350694717,
            3131268.063467145
          ],
          [
            353638.7925608021,
            3131282.2052297127
          ],
          [
            353624.65005213243,
            3131296.346992281
          ],
          [
            353610.50754346274,
            3131310.4887548485
          ],
          [
            353596.3650347931,
            3131324.6305174166
          ],
          [
            353582.22252612346,
            3131338.772279985
          ],
          [
            353568.0800174538,
            3131352.9140425525
          ],
          [
            353553.9375087841,
            3131367.0558051206
          ],
          [
            353539.7950001145,
            3131381.1975676883
          ],
          [
            353525.65249144484,
            3131395.3393302565
          ],
          [
            353511.50998277514,
            3131409.481092824
          ],
          [
            353497.3674741055,
            3131423.6228553923
          ],
          [
            353483.22496543586,
            3131437.7646179604
          ],
          [
            353469.08245676616,
            3131451.906380528
          ],
          [
            353454.9399480965,
            3131466.0481430963
          ],
          [
            353440.7974394269,
            3131480.189905664
          ],
          [
            353426.6549307572,
            3131494.331668232
          ],
          [
            353412.51242208754,
            3131508.4734308003
          ],
          [
            353398.3699134179,
            3131522.615193368
          ],
          [
            353384.2274047482,
            3131536.756955936
          ],
          [
            353372.16197104397,
            3131552.601600424
          ],
          [
            353361.0675651341,
            3131569.2423383133
          ],
          [
            353349.97315922426,
            3131585.883076203
          ],
          [
            353338.87875331444,
            3131602.5238140924
          ],
          [
            353327.7843474046,
            3131619.1645519817
          ],
          [
            353316.6899414948,
            3131635.8052898715
          ],
          [
            353305.59553558496,
            3131652.446027761
          ],
          [
            353294.50112967513,
            3131669.0867656507
          ],
          [
            353283.40672376525,
            3131685.72750354
          ],
          [
            353272.3123178554,
            3131702.3682414293
          ],
          [
            353261.2179119456,
            3131719.008979319
          ],
          [
            353250.1235060358,
            3131735.6497172085
          ],
          [
            353239.02910012595,
            3131752.2904550983
          ],
          [
            353227.9346942161,
            3131768.9311929876
          ],
          [
            353216.8402883063,
            3131785.5719308774
          ],
          [
            353205.74588239647,
            3131802.2126687667
          ],
          [
            353194.6514764866,
            3131818.853406656
          ],
          [
            353183.55707057676,
            3131835.494144546
          ],
          [
            353172.46266466693,
            3131852.134882435
          ],
          [
            353161.3682587571,
            3131868.775620325
          ],
          [
            353150.2738528473,
            3131885.4163582143
          ],
          [
            353139.17944693746,
            3131902.0570961037
          ],
          [
            353128.08504102763,
            3131918.6978339935
          ],
          [
            353116.99063511775,
            3131935.338571883
          ],
          [
            353105.8962292079,
            3131951.9793097726
          ],
          [
            353094.8018232981,
            3131968.620047662
          ],
          [
            353083.7074173883,
            3131985.2607855513
          ],
          [
            353072.61301147845,
            3132001.901523441
          ],
          [
            353061.5186055686,
            3132018.5422613304
          ],
          [
            353050.4241996588,
            3132035.18299922
          ],
          [
            353039.32979374897,
            3132051.8237371095
          ],
          [
            353028.2353878391,
            3132068.464474999
          ],
          [
            353017.14098192926,
            3132085.1052128887
          ],
          [
            353006.04657601943,
            3132101.745950778
          ],
          [
            352994.9521701096,
            3132118.386688668
          ],
          [
            352983.8577641998,
            3132135.027426557
          ],
          [
            352972.76335828996,
            3132151.6681644465
          ],
          [
            352961.66895238013,
            3132168.3089023363
          ],
          [
            352950.5745464703,
            3132184.9496402256
          ],
          [
            352939.4801405604,
            3132201.5903781154
          ],
          [
            352928.3857346506,
            3132218.2311160048
          ],
          [
            352917.2913287408,
            3132234.8718538946
          ],
          [
            352906.19692283095,
            3132251.512591784
          ],
          [
            352895.1025169211,
            3132268.153329673
          ],
          [
            352884.0081110113,
            3132284.794067563
          ],
          [
            352872.91370510147,
            3132301.4348054524
          ],
          [
            352861.8192991916,
            3132318.075543342
          ],
          [
            352850.72489328176,
            3132334.7162812315
          ],
          [
            352839.63048737193,
            3132351.357019121
          ],
          [
            352828.5360814621,
            3132367.9977570106
          ],
          [
            352817.4416755523,
            3132384.6384949
          ],
          [
            352806.34726964246,
            3132401.2792327898
          ],
          [
            352795.25286373263,
            3132417.919970679
          ],
          [
            352784.1584578228,
            3132434.5607085684
          ],
          [
            352773.0640519129,
            3132451.201446458
          ],
          [
            352761.9696460031,
            3132467.8421843476
          ],
          [
            352750.8752400933,
            3132484.4829222374
          ],
          [
            352739.78083418345,
            3132501.1236601267
          ],
          [
            352728.6864282736,
            3132517.764398016
          ],
          [
            352717.5920223638,
            3132534.405135906
          ],
          [
            352706.49761645397,
            3132551.045873795
          ],
          [
            352695.40321054414,
            3132567.686611685
          ],
          [
            352684.30880463426,
            3132584.3273495743
          ],
          [
            352673.21439872443,
            3132600.968087464
          ],
          [
            352662.1199928146,
            3132617.6088253534
          ],
          [
            352647.6182797199,
            3132631.2610739553
          ],
          [
            352632.5664383707,
            3132644.430814727
          ],
          [
            352617.51459702145,
            3132657.6005554986
          ],
          [
            352602.4627556722,
            3132670.7702962705
          ],
          [
            352587.410914323,
            3132683.9400370424
          ],
          [
            352572.3590729738,
            3132697.1097778142
          ],
          [
            352557.30723162455,
            3132710.279518586
          ],
          [
            352542.2553902753,
            3132723.449259358
          ],
          [
            352527.2035489261,
            3132736.61900013
          ],
          [
            352512.1517075769,
            3132749.7887409017
          ],
          [
            352497.0998662277,
            3132762.9584816736
          ],
          [
            352482.0480248785,
            3132776.1282224455
          ],
          [
            352466.99618352926,
            3132789.2979632174
          ],
          [
            352451.94434218004,
            3132802.4677039892
          ],
          [
            352436.8925008308,
            3132815.637444761
          ],
          [
            352421.8406594816,
            3132828.807185533
          ],
          [
            352404.1363628428,
            3132838.025829432
          ],
          [
            352386.24765725096,
            3132846.969777791
          ],
          [
            352368.3589516591,
            3132855.9137261496
          ],
          [
            352350.47024606727,
            3132864.857674509
          ],
          [
            352332.5815404754,
            3132873.8016228676
          ],
          [
            352314.6928348836,
            3132882.745571227
          ],
          [
            352296.80412929173,
            3132891.6895195856
          ],
          [
            352278.9154236999,
            3132900.633467945
          ],
          [
            352261.026718108,
            3132909.5774163036
          ],
          [
            352243.13801251614,
            3132918.521364663
          ],
          [
            352225.2493069243,
            3132927.4653130216
          ],
          [
            352207.36060133245,
            3132936.409261381
          ],
          [
            352189.4718957406,
            3132945.3532097396
          ],
          [
            352171.58319014875,
            3132954.297158099
          ],
          [
            352153.6944845569,
            3132963.2411064575
          ],
          [
            352135.80577896506,
            3132972.185054817
          ],
          [
            352118.6084295958,
            3132982.0882512312
          ],
          [
            352104.46595484077,
            3132996.2300477154
          ],
          [
            352090.3234800857,
            3133010.3718441995
          ],
          [
            352076.18100533064,
            3133024.513640684
          ],
          [
            352062.0385305756,
            3133038.655437168
          ],
          [
            352047.8960558206,
            3133052.7972336523
          ],
          [
            352033.7535810655,
            3133066.939030137
          ],
          [
            352019.61110631045,
            3133081.080826621
          ],
          [
            352005.4686315554,
            3133095.222623105
          ],
          [
            351991.3261568003,
            3133109.3644195893
          ],
          [
            351977.18368204526,
            3133123.506216074
          ],
          [
            351963.0412072902,
            3133137.648012558
          ],
          [
            351948.89873253513,
            3133151.789809042
          ],
          [
            351934.75625778007,
            3133165.9316055267
          ],
          [
            351920.613783025,
            3133180.073402011
          ],
          [
            351906.47130826995,
            3133194.215198495
          ],
          [
            351892.3288335149,
            3133208.3569949795
          ],
          [
            351878.1863587598,
            3133222.4987914637
          ],
          [
            351864.04388400476,
            3133236.640587948
          ],
          [
            351849.9014092497,
            3133250.7823844324
          ],
          [
            351835.7589344947,
            3133264.9241809165
          ],
          [
            351821.6164597396,
            3133279.0659774006
          ],
          [
            351807.47398498456,
            3133293.207773885
          ],
          [
            351793.3315102295,
            3133307.3495703693
          ],
          [
            351791.609257,
            3133326.6361655304
          ],
          [
            351791.609257,
            3133346.6361655304
          ],
          [
            351791.609257,
            3133366.6361655304
          ],
          [
            351791.609257,
            3133386.6361655304
          ],
          [
            351791.609257,
            3133406.6361655304
          ],
          [
            351791.609257,
            3133426.6361655304
          ],
          [
            351791.609257,
            3133446.6361655304
          ],
          [
            351791.609257,
            3133466.6361655304
          ],
          [
            351791.609257,
            3133486.6361655304
          ],
          [
            351791.609257,
            3133506.6361655304
          ],
          [
            351791.609257,
            3133526.6361655304
          ],
          [
            351791.609257,
            3133546.6361655304
          ],
          [
            351791.609257,
            3133566.6361655304
          ],
          [
            351791.609257,
            3133586.6361655304
          ],
          [
            351791.609257,
            3133606.6361655304
          ],
          [
            351791.609257,
            3133626.6361655304
          ],
          [
            351791.609257,
            3133646.6361655304
          ],
          [
            351791.609257,
            3133666.6361655304
          ],
          [
            351791.609257,
            3133686.6361655304
          ],
          [
            351791.609257,
            3133706.6361655304
          ],
          [
            351791.609257,
            3133726.6361655304
          ],
          [
            351781.3624088375,
            3133743.4534844207
          ],
          [
            351770.03149631555,
            3133759.9340918553
          ],
          [
            351758.70058379363,
            3133776.4146992904
          ],
          [
            351747.3696712717,
            3133792.895306725
          ],
          [
            351736.0387587498,
            3133809.37591416
          ],
          [
            351724.70784622786,
            3133825.856521595
          ],
          [
            351713.376933706,
            3133842.3371290294
          ],
          [
            351702.04602118407,
            3133858.8177364646
          ],
          [
            351690.71510866215,
            3133875.298343899
          ],
          [
            351679.3841961402,
            3133891.778951334
          ],
          [
            351668.0532836183,
            3133908.259558769
          ],
          [
            351656.7223710964,
            3133924.7401662036
          ],
          [
            351645.39145857445,
            3133941.2207736387
          ],
          [
            351634.0605460526,
            3133957.7013810733
          ],
          [
            351622.72963353066,
            3133974.181988508
          ],
          [
            351611.39872100874,
            3133990.662595943
          ],
          [
            351600.0678084868,
            3134007.1432033777
          ],
          [
            351588.7368959649,
            3134023.623810813
          ],
          [
            351577.40598344296,
            3134040.1044182475
          ],
          [
            351566.07507092104,
            3134056.585025682
          ],
          [
            351554.7441583992,
            3134073.065633117
          ],
          [
            351543.41324587725,
            3134089.546240552
          ],
          [
            351532.0823333553,
            3134106.0268479865
          ],
          [
            351520.7514208334,
            3134122.5074554216
          ],
          [
            351509.4205083115,
            3134138.9880628563
          ],
          [
            351498.08959578956,
            3134155.4686702914
          ],
          [
            351486.75868326763,
            3134171.949277726
          ],
          [
            351475.42777074577,
            3134188.4298851606
          ],
          [
            351464.09685822384,
            3134204.9104925958
          ],
          [
            351462.7129810211,
            3134224.245258438
          ],
          [
            351463.58172550914,
            3134244.226381605
          ],
          [
            351464.4504699972,
            3134264.207504772
          ],
          [
            351465.31921448524,
            3134284.1886279387
          ],
          [
            351466.1879589733,
            3134304.169751106
          ],
          [
            351467.0567034613,
            3134324.150874273
          ],
          [
            351467.9254479493,
            3134344.13199744
          ],
          [
            351468.7941924374,
            3134364.113120607
          ],
          [
            351469.6629369254,
            3134384.0942437737
          ],
          [
            351470.5316814135,
            3134404.075366941
          ],
          [
            351471.4004259015,
            3134424.056490108
          ],
          [
            351472.26917038957,
            3134444.037613275
          ],
          [
            351473.1379148776,
            3134464.018736442
          ],
          [
            351474.00665936567,
            3134483.9998596087
          ],
          [
            351474.87540385366,
            3134503.980982776
          ],
          [
            351475.7441483417,
            3134523.962105943
          ],
          [
            351476.61289282975,
            3134543.94322911
          ],
          [
            351477.4816373178,
            3134563.9243522766
          ],
          [
            351478.35038180585,
            3134583.9054754437
          ],
          [
            351479.2191262939,
            3134603.886598611
          ],
          [
            351480.08787078195,
            3134623.867721778
          ],
          [
            351480.95661527,
            3134643.848844945
          ],
          [
            351481.825359758,
            3134663.8299681116
          ],
          [
            351482.69410424604,
            3134683.8110912787
          ],
          [
            351483.5628487341,
            3134703.792214446
          ],
          [
            351484.43159322214,
            3134723.773337613
          ],
          [
            351485.3003377102,
            3134743.75446078
          ],
          [
            351486.16908219823,
            3134763.7355839466
          ],
          [
            351487.0378266863,
            3134783.7167071137
          ],
          [
            351487.90657117433,
            3134803.6978302808
          ],
          [
            351488.7753156624,
            3134823.678953448
          ],
          [
            351489.6440601504,
            3134843.660076615
          ],
          [
            351490.5128046384,
            3134863.6411997816
          ],
          [
            351491.38154912647,
            3134883.6223229486
          ],
          [
            351487.3668212002,
            3134901.703749056
          ],
          [
            351473.2241526551,
            3134915.8453517384
          ],
          [
            351459.08148411004,
            3134929.986954421
          ],
          [
            351444.93881556496,
            3134944.1285571028
          ],
          [
            351430.7961470199,
            3134958.270159785
          ],
          [
            351416.6534784748,
            3134972.4117624676
          ],
          [
            351402.51080992975,
            3134986.55336515
          ],
          [
            351388.3681413847,
            3135000.6949678324
          ],
          [
            351374.2254728396,
            3135014.8365705144
          ],
          [
            351355.1011852634,
            3135016.95084
          ],
          [
            351335.1011852634,
            3135016.95084
          ],
          [
            351315.1011852634,
            3135016.95084
          ],
          [
            351295.1011852634,
            3135016.95084
          ],
          [
            351275.1011852634,
            3135016.95084
          ],
          [
            351255.1011852634,
            3135016.95084
          ],
          [
            351235.1011852634,
            3135016.95084
          ],
          [
            351215.1011852634,
            3135016.95084
          ],
          [
            351195.1011852634,
            3135016.95084
          ],
          [
            351175.1011852634,
            3135016.95084
          ],
          [
            351155.1011852634,
            3135016.95084
          ],
          [
            351135.1011852634,
            3135016.95084
          ],
          [
            351115.1011852634,
            3135016.95084
          ],
          [
            351095.1011852634,
            3135016.95084
          ],
          [
            351075.1011852634,
            3135016.95084
          ],
          [
            351055.1011852634,
            3135016.95084
          ],
          [
            351035.1011852634,
            3135016.95084
          ],
          [
            351015.1011852634,
            3135016.95084
          ],
          [
            350995.1011852634,
            3135016.95084
          ],
          [
            350975.1011852634,
            3135016.95084
          ],
          [
            350955.1011852634,
            3135016.95084
          ],
          [
            350935.1011852634,
            3135016.95084
          ],
          [
            350915.1011852634,
            3135016.95084
          ],
          [
            350895.1011852634,
            3135016.95084
          ],
          [
            350875.1011852634,
            3135016.95084
          ],
          [
            350855.1011852634,
            3135016.95084
          ],
          [
            350835.1011852634,
            3135016.95084
          ],
          [
            350815.1011852634,
            3135016.95084
          ],
          [
            350795.1011852634,
            3135016.95084
          ],
          [
            350775.1011852634,
            3135016.95084
          ],
          [
            350755.1011852634,
            3135016.95084
          ],
          [
            350735.1011852634,
            3135016.95084
          ],
          [
            350715.1011852634,
            3135016.95084
          ],
          [
            350695.1011852634,
            3135016.95084
          ],
          [
            350675.1011852634,
            3135016.95084
          ],
          [
            350655.1011852634,
            3135016.95084
          ],
          [
            350635.1011852634,
            3135016.95084
          ],
          [
            350615.1011852634,
            3135016.95084
          ],
          [
            350595.1011852634,
            3135016.95084
          ],
          [
            350575.1011852634,
            3135016.95084
          ],
          [
            350555.1011852634,
            3135016.95084
          ],
          [
            350535.1011852634,
            3135016.95084
          ],
          [
            350515.1011852634,
            3135016.95084
          ],
          [
            350495.1011852634,
            3135016.95084
          ],
          [
            350475.1011852634,
            3135016.95084
          ],
          [
            350458.13720487145,
            3135026.978550852
          ],
          [
            350441.4959416984,
            3135038.0721688373
          ],
          [
            350424.85467852536,
            3135049.1657868223
          ],
          [
            350408.2134153523,
            3135060.259404808
          ],
          [
            350391.5721521792,
            3135071.3530227933
          ],
          [
            350373.24457709136,
            3135076.876898
          ],
          [
            350353.24457709136,
            3135076.876898
          ],
          [
            350333.24457709136,
            3135076.876898
          ],
          [
            350313.24457709136,
            3135076.876898
          ],
          [
            350293.24457709136,
            3135076.876898
          ],
          [
            350273.24457709136,
            3135076.876898
          ],
          [
            350253.24457709136,
            3135076.876898
          ],
          [
            350233.24457709136,
            3135076.876898
          ],
          [
            350213.24457709136,
            3135076.876898
          ],
          [
            350193.24457709136,
            3135076.876898
          ],
          [
            350173.30885797896,
            3135077.0601573656
          ],
          [
            350157.6911142907,
            3135089.5535989287
          ],
          [
            350142.07337060245,
            3135102.047040492
          ],
          [
            350126.45562691416,
            3135114.540482055
          ],
          [
            350110.83788322593,
            3135127.033923618
          ],
          [
            350095.2201395377,
            3135139.5273651807
          ],
          [
            350079.6023958494,
            3135152.0208067438
          ],
          [
            350063.9846521612,
            3135164.514248307
          ],
          [
            350048.3669084729,
            3135177.00768987
          ],
          [
            350032.7491647847,
            3135189.5011314326
          ],
          [
            350015.3359856301,
            3135197.659698441
          ],
          [
            349995.45826425723,
            3135199.8679088075
          ],
          [
            349975.5805428844,
            3135202.0761191742
          ],
          [
            349955.70282151154,
            3135204.2843295406
          ],
          [
            349935.82510013867,
            3135206.492539907
          ],
          [
            349915.9473787658,
            3135208.7007502737
          ],
          [
            349896.0696573929,
            3135210.90896064
          ],
          [
            349876.1919360201,
            3135213.1171710067
          ],
          [
            349856.3142146472,
            3135215.325381373
          ],
          [
            349836.43649327435,
            3135217.53359174
          ],
          [
            349816.5587719015,
            3135219.741802106
          ],
          [
            349796.68105052866,
            3135221.950012473
          ],
          [
            349776.8033291558,
            3135224.1582228392
          ],
          [
            349756.9256077829,
            3135226.366433206
          ],
          [
            349741.9496204141,
            3135238.7734251665
          ],
          [
            349727.8076624089,
            3135252.9157384066
          ],
          [
            349713.6657044037,
            3135267.0580516467
          ],
          [
            349699.52374639857,
            3135281.200364887
          ],
          [
            349685.38178839337,
            3135295.342678127
          ],
          [
            349671.23983038816,
            3135309.484991367
          ],
          [
            349654.1791990438,
            3135316.581129
          ],
          [
            349634.1791990438,
            3135316.581129
          ],
          [
            349614.1791990438,
            3135316.581129
          ],
          [
            349594.1791990438,
            3135316.581129
          ],
          [
            349574.1791990438,
            3135316.581129
          ],
          [
            349554.1791990438,
            3135316.581129
          ],
          [
            349534.1791990438,
            3135316.581129
          ],
          [
            349514.1913064018,
            3135316.638185615
          ],
          [
            349495.91483560513,
            3135324.7604153105
          ],
          [
            349477.63836480846,
            3135332.8826450054
          ],
          [
            349459.36189401185,
            3135341.0048747
          ],
          [
            349441.0854232152,
            3135349.1271043955
          ],
          [
            349422.8089524185,
            3135357.2493340904
          ],
          [
            349404.53248162183,
            3135365.3715637857
          ],
          [
            349386.25601082516,
            3135373.4937934806
          ],
          [
            349367.97954002855,
            3135381.6160231754
          ],
          [
            349349.7030692319,
            3135389.7382528707
          ],
          [
            349331.4265984352,
            3135397.8604825656
          ],
          [
            349313.15012763854,
            3135405.982712261
          ],
          [
            349294.87365684187,
            3135414.104941956
          ],
          [
            349276.59718604526,
            3135422.2271716506
          ],
          [
            349258.3207152486,
            3135430.349401346
          ],
          [
            349239.61074242316,
            3135436.428728
          ],
          [
            349219.61074242316,
            3135436.428728
          ],
          [
            349199.61074242316,
            3135436.428728
          ],
          [
            349179.61074242316,
            3135436.428728
          ],
          [
            349159.61074242316,
            3135436.428728
          ],
          [
            349139.61074242316,
            3135436.428728
          ],
          [
            349119.61074242316,
            3135436.428728
          ],
          [
            349099.61074242316,
            3135436.428728
          ],
          [
            349079.61074242316,
            3135436.428728
          ],
          [
            349059.61074242316,
            3135436.428728
          ],
          [
            349039.61074242316,
            3135436.428728
          ],
          [
            349019.61074242316,
            3135436.428728
          ],
          [
            348999.61074242316,
            3135436.428728
          ],
          [
            348979.61074242316,
            3135436.428728
          ],
          [
            348959.61074242316,
            3135436.428728
          ],
          [
            348939.61074242316,
            3135436.428728
          ],
          [
            348919.61074242316,
            3135436.428728
          ],
          [
            348899.61074242316,
            3135436.428728
          ],
          [
            348879.61074242316,
            3135436.428728
          ],
          [
            348859.61074242316,
            3135436.428728
          ],
          [
            348839.61074242316,
            3135436.428728
          ],
          [
            348819.61074242316,
            3135436.428728
          ],
          [
            348799.61074242316,
            3135436.428728
          ],
          [
            348779.61074242316,
            3135436.428728
          ],
          [
            348759.61074242316,
            3135436.428728
          ],
          [
            348739.61074242316,
            3135436.428728
          ],
          [
            348719.61074242316,
            3135436.428728
          ],
          [
            348699.61074242316,
            3135436.428728
          ],
          [
            348679.61074242316,
            3135436.428728
          ],
          [
            348659.61074242316,
            3135436.428728
          ],
          [
            348639.61074242316,
            3135436.428728
          ],
          [
            348619.61074242316,
            3135436.428728
          ],
          [
            348599.61074242316,
            3135436.428728
          ],
          [
            348579.61074242316,
            3135436.428728
          ],
          [
            348559.61074242316,
            3135436.428728
          ],
          [
            348539.61074242316,
            3135436.428728
          ],
          [
            348519.61074242316,
            3135436.428728
          ],
          [
            348499.61074242316,
            3135436.428728
          ],
          [
            348479.61074242316,
            3135436.428728
          ],
          [
            348461.3556542441,
            3135432.2160259774
          ],
          [
            348447.21325219166,
            3135418.0741567872
          ],
          [
            348433.07085013925,
            3135403.9322875976
          ],
          [
            348418.92844808684,
            3135389.7904184074
          ],
          [
            348404.43319457787,
            3135376.455342159
          ],
          [
            348384.44855189015,
            3135375.671724494
          ],
          [
            348364.46390920243,
            3135374.888106829
          ],
          [
            348344.47926651477,
            3135374.104489164
          ],
          [
            348324.49462382705,
            3135373.320871499
          ],
          [
            348304.5099811394,
            3135372.537253834
          ],
          [
            348284.52533845167,
            3135371.753636169
          ],
          [
            348264.54069576395,
            3135370.9700185037
          ],
          [
            348244.5560530763,
            3135370.1864008387
          ],
          [
            348224.57141038857,
            3135369.4027831736
          ],
          [
            348204.58676770085,
            3135368.6191655085
          ],
          [
            348184.6021250132,
            3135367.8355478435
          ],
          [
            348164.61748232547,
            3135367.0519301784
          ],
          [
            348144.63283963775,
            3135366.268312513
          ],
          [
            348124.6481969501,
            3135365.484694848
          ],
          [
            348104.66355426237,
            3135364.701077183
          ],
          [
            348084.67891157465,
            3135363.9174595177
          ],
          [
            348064.694268887,
            3135363.1338418527
          ],
          [
            348044.70962619927,
            3135362.3502241876
          ],
          [
            348024.72498351155,
            3135361.5666065225
          ],
          [
            348004.7403408239,
            3135360.7829888575
          ],
          [
            347984.75569813617,
            3135359.9993711924
          ],
          [
            347964.7710554485,
            3135359.2157535274
          ],
          [
            347944.7864127608,
            3135358.4321358623
          ],
          [
            347924.80177007307,
            3135357.6485181972
          ],
          [
            347904.8171273854,
            3135356.864900532
          ],
          [
            347884.8324846977,
            3135356.081282867
          ],
          [
            347864.84784201,
            3135355.297665202
          ],
          [
            347844.8631993223,
            3135354.514047537
          ],
          [
            347824.8785566346,
            3135353.730429872
          ],
          [
            347804.8939139469,
            3135352.946812207
          ],
          [
            347784.9092712592,
            3135352.163194542
          ],
          [
            347764.9246285715,
            3135351.3795768768
          ],
          [
            347744.9399858838,
            3135350.5959592117
          ],
          [
            347724.9553431961,
            3135349.8123415466
          ],
          [
            347704.9707005084,
            3135349.0287238816
          ],
          [
            347684.98605782073,
            3135348.2451062165
          ],
          [
            347665.001415133,
            3135347.4614885515
          ],
          [
            347645.0167724453,
            3135346.6778708864
          ],
          [
            347625.03212975763,
            3135345.8942532213
          ],
          [
            347605.0474870699,
            3135345.1106355563
          ],
          [
            347585.0628443822,
            3135344.327017891
          ],
          [
            347565.07820169453,
            3135343.543400226
          ],
          [
            347545.0935590068,
            3135342.759782561
          ],
          [
            347525.1089163191,
            3135341.976164896
          ],
          [
            347505.12427363143,
            3135341.192547231
          ],
          [
            347485.1396309437,
            3135340.408929566
          ],
          [
            347465.154988256,
            3135339.625311901
          ],
          [
            347445.17034556833,
            3135338.8416942353
          ],
          [
            347425.1857028806,
            3135338.0580765703
          ],
          [
            347405.20106019295,
            3135337.274458905
          ],
          [
            347385.21641750523,
            3135336.49084124
          ],
          [
            347365.2317748175,
            3135335.707223575
          ],
          [
            347345.24713212985,
            3135334.92360591
          ],
          [
            347325.26248944213,
            3135334.139988245
          ],
          [
            347305.2778467544,
            3135333.35637058
          ],
          [
            347285.29320406675,
            3135332.572752915
          ],
          [
            347265.30856137903,
            3135331.78913525
          ],
          [
            347245.3239186913,
            3135331.0055175847
          ],
          [
            347225.33927600365,
            3135330.2218999197
          ],
          [
            347205.35463331593,
            3135329.4382822546
          ],
          [
            347185.3699906282,
            3135328.6546645896
          ],
          [
            347165.38534794055,
            3135327.8710469245
          ],
          [
            347145.40070525283,
            3135327.0874292594
          ],
          [
            347125.4160625651,
            3135326.3038115944
          ],
          [
            347105.43141987745,
            3135325.5201939293
          ],
          [
            347085.44677718973,
            3135324.7365762643
          ],
          [
            347065.4621345021,
            3135323.952958599
          ],
          [
            347045.47749181435,
            3135323.169340934
          ],
          [
            347025.49284912663,
            3135322.385723269
          ],
          [
            347005.508206439,
            3135321.602105604
          ],
          [
            346985.52356375125,
            3135320.818487939
          ],
          [
            346965.53892106353,
            3135320.034870274
          ],
          [
            346945.5542783759,
            3135319.251252609
          ],
          [
            346925.56963568815,
            3135318.467634944
          ],
          [
            346905.58499300043,
            3135317.6840172787
          ],
          [
            346885.6003503128,
            3135316.9003996137
          ],
          [
            346867.09791344474,
            3135310.8257802413
          ],
          [
            346849.6145952718,
            3135301.113232395
          ],
          [
            346832.13127709884,
            3135291.400684549
          ],
          [
            346814.6479589259,
            3135281.688136703
          ],
          [
            346797.164640753,
            3135271.9755888567
          ],
          [
            346779.6813225801,
            3135262.2630410106
          ],
          [
            346762.19800440717,
            3135252.5504931645
          ],
          [
            346744.71468623425,
            3135242.837945318
          ],
          [
            346727.23136806133,
            3135233.1253974717
          ],
          [
            346709.7480498884,
            3135223.4128496256
          ],
          [
            346692.2647317155,
            3135213.7003017794
          ],
          [
            346674.7814135426,
            3135203.9877539333
          ],
          [
            346657.29809536965,
            3135194.275206087
          ],
          [
            346639.81477719673,
            3135184.562658241
          ],
          [
            346622.3314590238,
            3135174.850110395
          ],
          [
            346605.408273413,
            3135164.394946098
          ],
          [
            346591.2658047263,
            3135150.2531435452
          ],
          [
            346577.12333603954,
            3135136.111340992
          ],
          [
            346562.98086735286,
            3135121.9695384395
          ],
          [
            346548.8383986661,
            3135107.8277358864
          ],
          [
            346534.69592997944,
            3135093.6859333334
          ],
          [
            346520.5534612927,
            3135079.5441307807
          ],
          [
            346506.41099260596,
            3135065.4023282276
          ],
          [
            346492.2685239193,
            3135051.260525675
          ],
          [
            346478.12605523254,
            3135037.118723122
          ],
          [
            346463.9835865458,
            3135022.976920569
          ],
          [
            346449.8411178591,
            3135008.835118016
          ],
          [
            346435.6986491724,
            3134994.693315463
          ],
          [
            346421.5561804857,
            3134980.5515129105
          ],
          [
            346407.41371179896,
            3134966.4097103574
          ],
          [
            346393.2712431122,
            3134952.267907805
          ],
          [
            346379.12877442554,
            3134938.1261052517
          ],
          [
            346364.0635028311,
            3134925.347370476
          ],
          [
            346345.68047938694,
            3134917.4692711458
          ],
          [
            346327.29745594284,
            3134909.591171816
          ],
          [
            346308.91443249874,
            3134901.713072486
          ],
          [
            346290.5314090546,
            3134893.834973156
          ],
          [
            346272.1483856105,
            3134885.956873826
          ],
          [
            346253.76536216633,
            3134878.078774496
          ],
          [
            346235.38233872224,
            3134870.200675166
          ],
          [
            346216.9993152781,
            3134862.3225758364
          ],
          [
            346198.616291834,
            3134854.444476506
          ],
          [
            346180.2332683898,
            3134846.5663771764
          ],
          [
            346161.85024494573,
            3134838.688277846
          ],
          [
            346142.25322662643,
            3134835.4520699456
          ],
          [
            346122.3670218815,
            3134833.3216097043
          ],
          [
            346102.48081713653,
            3134831.1911494625
          ],
          [
            346082.5946123916,
            3134829.0606892207
          ],
          [
            346062.7084076466,
            3134826.930228979
          ],
          [
            346042.82220290165,
            3134824.799768737
          ],
          [
            346022.9359981567,
            3134822.6693084952
          ],
          [
            346003.04979341174,
            3134820.5388482534
          ],
          [
            345983.1635886668,
            3134818.4083880116
          ],
          [
            345963.27738392184,
            3134816.2779277703
          ],
          [
            345943.3911791769,
            3134814.1474675285
          ],
          [
            345923.50497443194,
            3134812.0170072867
          ],
          [
            345903.61876968696,
            3134809.886547045
          ],
          [
            345883.73256494204,
            3134807.756086803
          ],
          [
            345863.84636019706,
            3134805.625626561
          ],
          [
            345843.96015545214,
            3134803.4951663194
          ],
          [
            345824.07395070716,
            3134801.3647060776
          ],
          [
            345804.1877459622,
            3134799.234245836
          ],
          [
            345784.30154121725,
            3134797.1037855945
          ],
          [
            345764.4153364723,
            3134794.9733253527
          ],
          [
            345744.52913172735,
            3134792.842865111
          ],
          [
            345724.6429269824,
            3134790.712404869
          ],
          [
            345704.75672223745,
            3134788.581944627
          ],
          [
            345684.87051749247,
            3134786.4514843854
          ],
          [
            345664.9843127475,
            3134784.3210241436
          ],
          [
            345645.09810800257,
            3134782.190563902
          ],
          [
            345625.2119032576,
            3134780.06010366
          ],
          [
            345605.32569851266,
            3134777.9296434186
          ],
          [
            345585.4394937677,
            3134775.799183177
          ],
          [
            345565.55328902276,
            3134773.668722935
          ],
          [
            345545.6670842778,
            3134771.538262693
          ],
          [
            345525.7808795328,
            3134769.4078024514
          ],
          [
            345505.8946747879,
            3134767.2773422096
          ],
          [
            345486.0084700429,
            3134765.146881968
          ],
          [
            345466.122265298,
            3134763.016421726
          ],
          [
            345446.236060553,
            3134760.885961484
          ],
          [
            345426.3498558081,
            3134758.755501243
          ],
          [
            345406.4636510631,
            3134756.625041001
          ],
          [
            345386.5774463181,
            3134754.494580759
          ],
          [
            345366.6912415732,
            3134752.3641205174
          ],
          [
            345346.8050368282,
            3134750.2336602756
          ],
          [
            345326.9188320833,
            3134748.103200034
          ],
          [
            345309.03610929445,
            3134740.4387843246
          ],
          [
            345292.3949104476,
            3134729.3450698457
          ],
          [
            345275.7537116007,
            3134718.251355367
          ],
          [
            345259.1125127538,
            3134707.157640888
          ],
          [
            345242.47131390695,
            3134696.063926409
          ],
          [
            345225.83011506003,
            3134684.97021193
          ],
          [
            345209.18891621317,
            3134673.876497451
          ],
          [
            345192.54771736625,
            3134662.7827829723
          ],
          [
            345175.9065185194,
            3134651.6890684934
          ],
          [
            345159.26531967253,
            3134640.5953540145
          ],
          [
            345142.6241208256,
            3134629.5016395357
          ],
          [
            345125.98292197875,
            3134618.4079250568
          ],
          [
            345109.34172313183,
            3134607.314210578
          ],
          [
            345092.70052428497,
            3134596.2204960994
          ],
          [
            345076.0593254381,
            3134585.1267816206
          ],
          [
            345059.4181265912,
            3134574.0330671417
          ],
          [
            345042.77692774433,
            3134562.939352663
          ],
          [
            345026.1357288974,
            3134551.845638184
          ],
          [
            345009.49453005055,
            3134540.751923705
          ],
          [
            344992.8533312037,
            3134529.658209226
          ],
          [
            344976.21213235677,
            3134518.564494747
          ],
          [
            344959.5366952818,
            3134507.583865
          ],
          [
            344939.5366952818,
            3134507.583865
          ],
          [
            344919.5366952818,
            3134507.583865
          ],
          [
            344899.5366952818,
            3134507.583865
          ],
          [
            344879.5366952818,
            3134507.583865
          ],
          [
            344859.5366952818,
            3134507.583865
          ],
          [
            344839.5366952818,
            3134507.583865
          ],
          [
            344819.5366952818,
            3134507.583865
          ],
          [
            344799.5366952818,
            3134507.583865
          ],
          [
            344779.5366952818,
            3134507.583865
          ],
          [
            344759.5366952818,
            3134507.583865
          ],
          [
            344739.5366952818,
            3134507.583865
          ],
          [
            344719.71159000054,
            3134507.2104466874
          ],
          [
            344706.90756030806,
            3134491.846305851
          ],
          [
            344694.1035306156,
            3134476.482165015
          ],
          [
            344681.2995009232,
            3134461.118024179
          ],
          [
            344668.4954712307,
            3134445.7538833423
          ],
          [
            344655.6914415383,
            3134430.389742506
          ],
          [
            344642.8874118458,
            3134415.02560167
          ],
          [
            344630.08338215336,
            3134399.6614608336
          ],
          [
            344617.27935246093,
            3134384.2973199976
          ],
          [
            344604.47532276844,
            3134368.9331791615
          ],
          [
            344591.671293076,
            3134353.569038325
          ],
          [
            344578.8672633836,
            3134338.204897489
          ],
          [
            344566.0632336911,
            3134322.840756653
          ],
          [
            344553.25920399866,
            3134307.4766158164
          ],
          [
            344540.4551743062,
            3134292.1124749803
          ],
          [
            344527.65114461374,
            3134276.7483341442
          ],
          [
            344514.8471149213,
            3134261.3841933077
          ],
          [
            344502.0430852288,
            3134246.0200524717
          ],
          [
            344489.2390555364,
            3134230.6559116356
          ],
          [
            344476.4350258439,
            3134215.2917707996
          ],
          [
            344463.6309961515,
            3134199.927629963
          ],
          [
            344450.82696645905,
            3134184.563489127
          ],
          [
            344438.02293676656,
            3134169.199348291
          ],
          [
            344425.21890707413,
            3134153.8352074544
          ],
          [
            344419.4926283037,
            3134135.619189867
          ],
          [
            344418.06767203787,
            3134115.6700169602
          ],
          [
            344416.64271577203,
            3134095.720844054
          ],
          [
            344415.2177595062,
            3134075.771671148
          ],
          [
            344413.79280324036,
            3134055.822498242
          ],
          [
            344412.3678469745,
            3134035.873325336
          ],
          [
            344410.9428907086,
            3134015.9241524297
          ],
          [
            344409.5179344428,
            3133995.9749795236
          ],
          [
            344408.09297817695,
            3133976.0258066175
          ],
          [
            344406.6680219111,
            3133956.076633711
          ],
          [
            344405.2430656453,
            3133936.127460805
          ],
          [
            344403.81810937944,
            3133916.1782878987
          ],
          [
            344402.39315311355,
            3133896.2291149925
          ],
          [
            344400.9681968477,
            3133876.2799420864
          ],
          [
            344399.5432405819,
            3133856.3307691803
          ],
          [
            344398.11828431603,
            3133836.381596274
          ],
          [
            344396.6933280502,
            3133816.4324233676
          ],
          [
            344395.26837178436,
            3133796.4832504615
          ],
          [
            344393.8434155185,
            3133776.5340775554
          ],
          [
            344392.4184592526,
            3133756.5849046493
          ],
          [
            344390.9935029868,
            3133736.635731743
          ],
          [
            344391.23423651146,
            3133716.6845193673
          ],
          [
            344392.61033707,
            3133696.731916849
          ],
          [
            344393.9864376285,
            3133676.779314331
          ],
          [
            344395.36253818707,
            3133656.8267118125
          ],
          [
            344396.7386387456,
            3133636.8741092943
          ],
          [
            344398.1147393042,
            3133616.921506776
          ],
          [
            344399.49083986273,
            3133596.9689042578
          ],
          [
            344400.8669404213,
            3133577.0163017395
          ],
          [
            344402.24304097984,
            3133557.0636992212
          ],
          [
            344403.6191415384,
            3133537.111096703
          ],
          [
            344404.9952420969,
            3133517.1584941847
          ],
          [
            344406.37134265545,
            3133497.2058916665
          ],
          [
            344407.747443214,
            3133477.253289148
          ],
          [
            344409.12354377256,
            3133457.30068663
          ],
          [
            344410.4996443311,
            3133437.3480841117
          ],
          [
            344411.87574488966,
            3133417.395481593
          ],
          [
            344413.2518454482,
            3133397.4428790747
          ],
          [
            344414.6279460068,
            3133377.4902765565
          ],
          [
            344416.0040465653,
            3133357.537674038
          ],
          [
            344417.3801471238,
            3133337.58507152
          ],
          [
            344418.7562476824,
            3133317.6324690017
          ],
          [
            344420.13234824094,
            3133297.6798664834
          ],
          [
            344421.5084487995,
            3133277.727263965
          ],
          [
            344422.88454935804,
            3133257.774661447
          ],
          [
            344424.2606499166,
            3133237.8220589287
          ],
          [
            344425.6367504751,
            3133217.8694564104
          ],
          [
            344427.01285103365,
            3133197.916853892
          ],
          [
            344428.3889515922,
            3133177.964251374
          ],
          [
            344429.76505215076,
            3133158.0116488556
          ],
          [
            344431.1411527093,
            3133138.0590463374
          ],
          [
            344432.51725326787,
            3133118.1064438187
          ],
          [
            344433.8933538264,
            3133098.1538413004
          ],
          [
            344435.269454385,
            3133078.201238782
          ],
          [
            344436.6455549435,
            3133058.248636264
          ],
          [
            344438.02165550203,
            3133038.2960337456
          ],
          [
            344439.3977560606,
            3133018.3434312274
          ],
          [
            344440.77385661914,
            3132998.390828709
          ],
          [
            344442.1499571777,
            3132978.438226191
          ],
          [
            344443.52605773625,
            3132958.4856236726
          ],
          [
            344444.9021582948,
            3132938.5330211543
          ],
          [
            344446.27825885336,
            3132918.580418636
          ],
          [
            344447.65435941186,
            3132898.627816118
          ],
          [
            344449.0304599704,
            3132878.6752135996
          ],
          [
            344449.7036884178,
            3132858.985797619
          ],
          [
            344435.5611531567,
            3132844.844061644
          ],
          [
            344421.41861789563,
            3132830.702325669
          ],
          [
            344407.2760826345,
            3132816.560589694
          ],
          [
            344393.1335473734,
            3132802.418853719
          ],
          [
            344378.9910121123,
            3132788.2771177436
          ],
          [
            344364.84847685124,
            3132774.1353817685
          ],
          [
            344350.70594159013,
            3132759.9936457938
          ],
          [
            344336.563406329,
            3132745.8519098186
          ],
          [
            344330.485344,
            3132728.3696262836
          ],
          [
            344330.485344,
            3132708.3696262836
          ],
          [
            344330.485344,
            3132688.3696262836
          ],
          [
            344330.485344,
            3132668.3696262836
          ],
          [
            344330.485344,
            3132648.3696262836
          ],
          [
            344330.485344,
            3132628.3696262836
          ],
          [
            344330.485344,
            3132608.3696262836
          ],
          [
            344330.485344,
            3132588.3696262836
          ],
          [
            344330.485344,
            3132568.3696262836
          ],
          [
            344330.485344,
            3132548.3696262836
          ],
          [
            344329.3673591339,
            3132528.7997933566
          ],
          [
            344315.96129807417,
            3132513.958043902
          ],
          [
            344302.5552370144,
            3132499.116294448
          ],
          [
            344289.1491759547,
            3132484.274544994
          ],
          [
            344275.74311489495,
            3132469.4327955395
          ],
          [
            344262.3370538352,
            3132454.591046085
          ],
          [
            344248.9309927755,
            3132439.749296631
          ],
          [
            344235.52493171574,
            3132424.907547177
          ],
          [
            344222.11887065595,
            3132410.0657977224
          ],
          [
            344208.7128095962,
            3132395.224048268
          ],
          [
            344195.3067485365,
            3132380.382298814
          ],
          [
            344181.90068747674,
            3132365.5405493598
          ],
          [
            344168.494626417,
            3132350.6987999054
          ],
          [
            344155.08856535726,
            3132335.8570504515
          ],
          [
            344141.6825042975,
            3132321.015300997
          ],
          [
            344128.2764432378,
            3132306.1735515427
          ],
          [
            344114.87038217805,
            3132291.331802089
          ],
          [
            344101.4643211183,
            3132276.4900526344
          ],
          [
            344088.0582600586,
            3132261.64830318
          ],
          [
            344074.65219899884,
            3132246.8065537256
          ],
          [
            344061.2461379391,
            3132231.9648042717
          ],
          [
            344047.84007687937,
            3132217.1230548173
          ],
          [
            344034.43401581957,
            3132202.281305363
          ],
          [
            344021.02795475983,
            3132187.439555909
          ],
          [
            344007.6218937001,
            3132172.5978064546
          ],
          [
            343994.21583264036,
            3132157.7560570003
          ],
          [
            343980.8097715806,
            3132142.9143075463
          ],
          [
            343967.4037105209,
            3132128.072558092
          ],
          [
            343953.99764946115,
            3132113.2308086376
          ],
          [
            343940.5915884014,
            3132098.389059183
          ],
          [
            343927.1855273417,
            3132083.5473097293
          ],
          [
            343913.77946628194,
            3132068.705560275
          ],
          [
            343900.3734052222,
            3132053.8638108205
          ],
          [
            343886.96734416246,
            3132039.0220613666
          ],
          [
            343873.5612831027,
            3132024.180311912
          ],
          [
            343860.155222043,
            3132009.338562458
          ],
          [
            343846.7491609832,
            3131994.496813004
          ],
          [
            343833.34309992346,
            3131979.6550635495
          ],
          [
            343819.9370388637,
            3131964.813314095
          ],
          [
            343806.530977804,
            3131949.971564641
          ],
          [
            343793.12491674424,
            3131935.129815187
          ],
          [
            343779.7188556845,
            3131920.2880657325
          ],
          [
            343766.31279462477,
            3131905.446316278
          ],
          [
            343752.90673356503,
            3131890.604566824
          ],
          [
            343739.5006725053,
            3131875.76281737
          ],
          [
            343726.09461144556,
            3131860.9210679154
          ],
          [
            343712.6885503858,
            3131846.0793184615
          ],
          [
            343699.2824893261,
            3131831.237569007
          ],
          [
            343685.87642826635,
            3131816.3958195527
          ],
          [
            343672.47036720655,
            3131801.554070099
          ],
          [
            343659.0643061468,
            3131786.7123206444
          ],
          [
            343645.6582450871,
            3131771.87057119
          ],
          [
            343632.25218402734,
            3131757.0288217356
          ],
          [
            343618.8461229676,
            3131742.1870722817
          ],
          [
            343605.44006190787,
            3131727.3453228273
          ],
          [
            343592.0340008481,
            3131712.503573373
          ],
          [
            343578.6279397884,
            3131697.661823919
          ],
          [
            343565.22187872865,
            3131682.8200744647
          ],
          [
            343551.8158176689,
            3131667.9783250103
          ],
          [
            343538.4097566092,
            3131653.1365755564
          ],
          [
            343525.00369554944,
            3131638.294826102
          ],
          [
            343511.5976344897,
            3131623.4530766476
          ],
          [
            343498.19157342997,
            3131608.611327193
          ],
          [
            343481.49058014544,
            3131601.185867
          ],
          [
            343461.49058014544,
            3131601.185867
          ],
          [
            343441.49058014544,
            3131601.185867
          ],
          [
            343421.49058014544,
            3131601.185867
          ],
          [
            343401.49058014544,
            3131601.185867
          ],
          [
            343381.49058014544,
            3131601.185867
          ],
          [
            343361.49058014544,
            3131601.185867
          ],
          [
            343341.49058014544,
            3131601.185867
          ],
          [
            343321.49058014544,
            3131601.185867
          ],
          [
            343304.4798652313,
            3131593.968863619
          ],
          [
            343290.3374098304,
            3131579.8270477797
          ],
          [
            343276.1949544296,
            3131565.6852319404
          ],
          [
            343262.0524990287,
            3131551.543416101
          ],
          [
            343247.91004362784,
            3131537.4016002617
          ],
          [
            343233.76758822694,
            3131523.2597844223
          ],
          [
            343219.6251328261,
            3131509.117968583
          ],
          [
            343205.4826774252,
            3131494.9761527437
          ],
          [
            343191.34022202436,
            3131480.8343369043
          ],
          [
            343177.19776662346,
            3131466.692521065
          ],
          [
            343163.0553112226,
            3131452.5507052257
          ],
          [
            343148.9128558217,
            3131438.408889386
          ],
          [
            343134.7704004209,
            3131424.2670735465
          ],
          [
            343120.62794502,
            3131410.125257707
          ],
          [
            343106.48548961914,
            3131395.983441868
          ],
          [
            343092.34303421824,
            3131381.8416260285
          ],
          [
            343078.2005788174,
            3131367.699810189
          ],
          [
            343064.05812341656,
            3131353.55799435
          ],
          [
            343049.91566801566,
            3131339.4161785105
          ],
          [
            343035.7732126148,
            3131325.274362671
          ],
          [
            343021.6307572139,
            3131311.132546832
          ],
          [
            343007.4883018131,
            3131296.9907309925
          ],
          [
            342993.3458464122,
            3131282.848915153
          ],
          [
            342979.20339101134,
            3131268.707099314
          ],
          [
            342965.06093561044,
            3131254.5652834745
          ],
          [
            342950.9184802096,
            3131240.423467635
          ],
          [
            342936.7760248087,
            3131226.281651796
          ],
          [
            342922.63356940786,
            3131212.1398359565
          ],
          [
            342908.49111400696,
            3131197.9980201167
          ],
          [
            342894.3486586061,
            3131183.8562042774
          ],
          [
            342880.2062032052,
            3131169.714388438
          ],
          [
            342866.0637478044,
            3131155.5725725987
          ],
          [
            342860.17106446816,
            3131137.3056841902
          ],
          [
            342857.3423687575,
            3131117.5067326883
          ],
          [
            342854.51367304684,
            3131097.7077811863
          ],
          [
            342851.6849773362,
            3131077.9088296844
          ],
          [
            342848.8562816256,
            3131058.1098781824
          ],
          [
            342846.0275859149,
            3131038.3109266805
          ],
          [
            342843.19889020425,
            3131018.5119751785
          ],
          [
            342840.3701944936,
            3130998.7130236765
          ],
          [
            342837.5414987829,
            3130978.9140721746
          ],
          [
            342834.7128030723,
            3130959.1151206726
          ],
          [
            342830.42755440477,
            3130940.0074640056
          ],
          [
            342816.87767998304,
            3130925.2968928693
          ],
          [
            342803.32780556136,
            3130910.586321733
          ],
          [
            342789.77793113963,
            3130895.8757505966
          ],
          [
            342776.2280567179,
            3130881.1651794603
          ],
          [
            342762.67818229616,
            3130866.454608324
          ],
          [
            342749.1283078745,
            3130851.7440371877
          ],
          [
            342735.57843345276,
            3130837.0334660513
          ],
          [
            342722.028559031,
            3130822.322894915
          ],
          [
            342708.47868460935,
            3130807.6123237787
          ],
          [
            342694.9288101876,
            3130792.901752643
          ],
          [
            342681.3789357659,
            3130778.1911815065
          ],
          [
            342667.8290613442,
            3130763.48061037
          ],
          [
            342654.2791869225,
            3130748.770039234
          ],
          [
            342640.72931250074,
            3130734.0594680975
          ],
          [
            342627.179438079,
            3130719.348896961
          ],
          [
            342613.62956365733,
            3130704.638325825
          ],
          [
            342600.0796892356,
            3130689.9277546885
          ],
          [
            342586.52981481387,
            3130675.217183552
          ],
          [
            342572.9799403922,
            3130660.506612416
          ],
          [
            342559.43006597046,
            3130645.7960412796
          ],
          [
            342545.8801915487,
            3130631.0854701432
          ],
          [
            342532.33031712705,
            3130616.3748990074
          ],
          [
            342518.7804427053,
            3130601.664327871
          ],
          [
            342505.2305682836,
            3130586.9537567347
          ],
          [
            342491.68069386185,
            3130572.2431855984
          ],
          [
            342478.1308194402,
            3130557.532614462
          ],
          [
            342464.58094501845,
            3130542.8220433258
          ],
          [
            342451.0310705967,
            3130528.1114721894
          ],
          [
            342437.48119617504,
            3130513.400901053
          ],
          [
            342423.9313217533,
            3130498.690329917
          ],
          [
            342410.3814473316,
            3130483.9797587804
          ],
          [
            342396.8315729099,
            3130469.269187644
          ],
          [
            342383.28169848816,
            3130454.5586165083
          ],
          [
            342369.73182406643,
            3130439.848045372
          ],
          [
            342356.1819496447,
            3130425.1374742356
          ],
          [
            342342.632075223,
            3130410.4269030993
          ],
          [
            342329.0822008013,
            3130395.716331963
          ],
          [
            342315.53232637956,
            3130381.0057608266
          ],
          [
            342301.9824519579,
            3130366.2951896903
          ],
          [
            342288.43257753615,
            3130351.584618554
          ],
          [
            342274.8827031144,
            3130336.8740474177
          ],
          [
            342261.33282869274,
            3130322.1634762813
          ],
          [
            342247.782954271,
            3130307.452905145
          ],
          [
            342234.2330798493,
            3130292.7423340087
          ],
          [
            342220.68320542754,
            3130278.031762873
          ],
          [
            342207.13333100587,
            3130263.3211917365
          ],
          [
            342193.58345658414,
            3130248.6106206
          ],
          [
            342180.0335821624,
            3130233.900049464
          ],
          [
            342166.4837077407,
            3130219.1894783275
          ],
          [
            342152.933833319,
            3130204.478907191
          ],
          [
            342139.38395889726,
            3130189.768336055
          ],
          [
            342125.8340844756,
            3130175.0577649185
          ],
          [
            342112.28421005385,
            3130160.347193782
          ],
          [
            342098.7343356321,
            3130145.636622646
          ],
          [
            342085.18446121045,
            3130130.9260515096
          ],
          [
            342071.6345867887,
            3130116.2154803732
          ],
          [
            342058.084712367,
            3130101.5049092374
          ],
          [
            342044.53483794525,
            3130086.794338101
          ],
          [
            342030.9849635236,
            3130072.0837669647
          ],
          [
            342017.43508910184,
            3130057.3731958284
          ],
          [
            342003.8852146801,
            3130042.662624692
          ],
          [
            341990.33534025843,
            3130027.9520535558
          ],
          [
            341976.7854658367,
            3130013.2414824194
          ],
          [
            341963.23559141497,
            3129998.530911283
          ],
          [
            341949.6857169933,
            3129983.820340147
          ],
          [
            341936.13584257156,
            3129969.1097690105
          ],
          [
            341922.5859681498,
            3129954.399197874
          ],
          [
            341909.0360937281,
            3129939.688626738
          ],
          [
            341895.4862193064,
            3129924.978055602
          ],
          [
            341881.9363448847,
            3129910.2674844656
          ],
          [
            341868.38647046295,
            3129895.5569133293
          ],
          [
            341854.8365960413,
            3129880.846342193
          ],
          [
            341841.28672161954,
            3129866.1357710566
          ],
          [
            341827.7368471978,
            3129851.4251999203
          ],
          [
            341814.18697277614,
            3129836.714628784
          ],
          [
            341800.6370983544,
            3129822.0040576477
          ],
          [
            341787.08722393267,
            3129807.2934865113
          ],
          [
            341770.3416433969,
            3129810.005102318
          ],
          [
            341752.45289729023,
            3129818.948969643
          ],
          [
            341734.5641511835,
            3129827.8928369684
          ],
          [
            341716.6754050769,
            3129836.8367042937
          ],
          [
            341698.7866589702,
            3129845.7805716186
          ],
          [
            341680.8979128635,
            3129854.724438944
          ],
          [
            341663.1781280076,
            3129862.7995280316
          ],
          [
            341649.9453258434,
            3129847.8030968932
          ],
          [
            341636.7125236792,
            3129832.8066657553
          ],
          [
            341623.479721515,
            3129817.810234617
          ],
          [
            341610.2469193508,
            3129802.8138034786
          ],
          [
            341597.0141171866,
            3129787.8173723407
          ],
          [
            341583.7813150224,
            3129772.8209412023
          ],
          [
            341570.54851285816,
            3129757.824510064
          ],
          [
            341557.31571069395,
            3129742.828078926
          ],
          [
            341544.08290852973,
            3129727.8316477877
          ],
          [
            341530.8501063655,
            3129712.83521665
          ],
          [
            341517.6173042013,
            3129697.8387855114
          ],
          [
            341504.3845020371,
            3129682.842354373
          ],
          [
            341491.15169987286,
            3129667.845923235
          ],
          [
            341477.91889770865,
            3129652.849492097
          ],
          [
            341464.6860955444,
            3129637.8530609584
          ],
          [
            341451.4532933802,
            3129622.8566298205
          ],
          [
            341438.22049121605,
            3129607.860198682
          ],
          [
            341424.98768905184,
            3129592.863767544
          ],
          [
            341411.7548868876,
            3129577.867336406
          ],
          [
            341398.5220847234,
            3129562.8709052675
          ],
          [
            341385.2892825592,
            3129547.874474129
          ],
          [
            341372.05648039497,
            3129532.8780429913
          ],
          [
            341358.82367823075,
            3129517.881611853
          ],
          [
            341345.59087606653,
            3129502.8851807145
          ],
          [
            341332.3580739023,
            3129487.8887495766
          ],
          [
            341319.1252717381,
            3129472.8923184383
          ],
          [
            341305.8924695739,
            3129457.8958873004
          ],
          [
            341292.65966740967,
            3129442.899456162
          ],
          [
            341279.42686524545,
            3129427.9030250236
          ],
          [
            341266.19406308123,
            3129412.9065938857
          ],
          [
            341252.9612609171,
            3129397.9101627474
          ],
          [
            341239.72845875286,
            3129382.913731609
          ],
          [
            341226.49565658864,
            3129367.917300471
          ],
          [
            341212.93573171296,
            3129353.3461173815
          ],
          [
            341195.0469856473,
            3129344.402249974
          ],
          [
            341177.15823958156,
            3129335.458382567
          ],
          [
            341159.26949351584,
            3129326.51451516
          ],
          [
            341141.3807474501,
            3129317.570647753
          ],
          [
            341123.4920013844,
            3129308.6267803456
          ],
          [
            341105.60325531865,
            3129299.6829129388
          ],
          [
            341087.714509253,
            3129290.7390455315
          ],
          [
            341069.82576318725,
            3129281.795178124
          ],
          [
            341051.9370171215,
            3129272.8513107174
          ],
          [
            341034.0482710558,
            3129263.90744331
          ],
          [
            341016.1595249901,
            3129254.963575903
          ],
          [
            340998.27077892434,
            3129246.019708496
          ],
          [
            340980.3820328587,
            3129237.075841089
          ],
          [
            340961.6614209996,
            3129238.033436925
          ],
          [
            340942.5311430702,
            3129243.867172122
          ],
          [
            340923.40086514084,
            3129249.7009073184
          ],
          [
            340904.2705872115,
            3129255.5346425152
          ],
          [
            340900.994467,
            3129256.533688
          ]
        ]
      }
    }
  ]
}