{"type": "FeatureCollection", "features": [{"type": "Feature", "properties": {}, "geometry": {"type": "LineString", "coordinates": [[344446.0, 3133228.0], [344446.0, 3133196.0], [344446.0, 3133164.0], [344446.0, 3133132.0], [344446.0, 3133100.0], [344446.0, 3133068.0], [344446.0, 3133036.0], [344446.0, 3133004.0], [344446.0, 3132972.0], [344446.0, 3132940.0], [344446.0, 3132908.0], [344446.0, 3132876.0], [344414.0, 3132844.0], [344382.0, 3132812.0], [344382.0, 3132780.0], [344350.0, 3132748.0], [344318.0, 3132716.0], [344318.0, 3132684.0], [344318.0, 3132652.0], [344318.0, 3132620.0], [344318.0, 3132588.0], [344318.0, 3132556.0], [344318.0, 3132524.0], [344286.0, 3132492.0], [344254.0, 3132460.0], [344222.0, 3132428.0], [344190.0, 3132396.0], [344158.0, 3132364.0], [344126.0, 3132332.0], [344094.0, 3132300.0], [344094.0, 3132268.0], [344062.0, 3132236.0], [344030.0, 3132204.0], [343998.0, 3132172.0], [343966.0, 3132140.0], [343934.0, 3132108.0], [343902.0, 3132076.0], [343870.0, 3132044.0], [343870.0, 3132012.0], [343838.0, 3131980.0], [343806.0, 3131948.0]]}}]}