{"type": "FeatureCollection", "features": [{"type": "Feature", "properties": {}, "geometry": {"type": "LineString", "coordinates": [[344427.0, 3133225.0], [344427.0, 3133195.0], [344427.0, 3133165.0], [344427.0, 3133135.0], [344427.0, 3133105.0], [344397.0, 3133075.0], [344397.0, 3133045.0], [344397.0, 3133015.0], [344397.0, 3132985.0], [344427.0, 3132955.0], [344427.0, 3132925.0], [344427.0, 3132895.0], [344427.0, 3132865.0], [344397.0, 3132835.0], [344397.0, 3132805.0], [344367.0, 3132775.0], [344337.0, 3132745.0], [344337.0, 3132715.0], [344337.0, 3132685.0], [344307.0, 3132655.0], [344307.0, 3132625.0], [344307.0, 3132595.0], [344307.0, 3132565.0], [344307.0, 3132535.0], [344307.0, 3132505.0], [344277.0, 3132475.0], [344247.0, 3132445.0], [344217.0, 3132415.0], [344187.0, 3132385.0], [344157.0, 3132355.0], [344127.0, 3132325.0], [344097.0, 3132295.0], [344097.0, 3132265.0], [344067.0, 3132235.0], [344037.0, 3132205.0], [344007.0, 3132175.0], [343977.0, 3132145.0], [343947.0, 3132115.0], [343917.0, 3132085.0], [343887.0, 3132055.0], [343857.0, 3132025.0], [343827.0, 3131995.0], [343797.0, 3131965.0]]}}]}