{"type": "FeatureCollection", "features": [{"type": "Feature", "properties": {}, "geometry": {"type": "LineString", "coordinates": [[344462.0, 3133244.0], [344462.0, 3133180.0], [344462.0, 3133116.0], [344462.0, 3133052.0], [344462.0, 3132988.0], [344462.0, 3132924.0], [344462.0, 3132860.0], [344398.0, 3132796.0], [344334.0, 3132732.0], [344334.0, 3132668.0], [344334.0, 3132604.0], [344334.0, 3132540.0], [344270.0, 3132476.0], [344206.0, 3132412.0], [344142.0, 3132348.0], [344078.0, 3132284.0], [344014.0, 3132220.0], [343950.0, 3132156.0], [343886.0, 3132092.0], [343822.0, 3132028.0], [343758.0, 3131964.0]]}}]}