{
  "type": "FeatureCollection",
  "features": [
    {
      "type": "Feature",
      "properties": {
        "provenance": "Local numerical valley axis derived from the accepted Copernicus terrain, anchored at the actual E4 front, without using the locally misaligned canonical corridor as a downstream target.",
        "method": "PRIORITY_FLOOD_ROUTING_ONLY"
      },
      "geometry": {
        "type": "LineString",
        "coordinates": [
          [
            335745.0,
            3141045.0
          ],
          [
            335745.0,
            3141025.0
          ],
          [
            335745.0,
            3141005.0
          ],
          [
            335745.0,
            3140985.0
          ],
          [
            335745.0,
            3140965.0
          ],
          [
            335745.0,
            3140945.0
          ],
          [
            335745.0,
            3140925.0
          ],
          [
            335730.8578643763,
            3140910.857864376
          ],
          [
            335716.71572875255,
            3140896.7157287523
          ],
          [
            335715.0,
            3140877.426406871
          ],
          [
            335715.0,
            3140857.426406871
          ],
          [
            335715.0,
            3140837.426406871
          ],
          [
            335702.5735931288,
            3140822.573593129
          ],
          [
            335688.4314575051,
            3140808.431457505
          ],
          [
            335685.0,
            3140789.8528137426
          ],
          [
            335681.36038969323,
            3140771.360389693
          ],
          [
            335667.2182540695,
            3140757.2182540693
          ],
          [
            335655.0,
            3140742.2792206137
          ],
          [
            335655.0,
            3140722.2792206137
          ],
          [
            335646.00505063386,
            3140706.005050634
          ],
          [
            335631.86291501013,
            3140691.86291501
          ],
          [
            335625.0,
            3140674.7056274847
          ],
          [
            335625.0,
            3140654.7056274847
          ],
          [
            335625.0,
            3140634.7056274847
          ],
          [
            335625.0,
            3140614.7056274847
          ],
          [
            335625.0,
            3140594.7056274847
          ],
          [
            335625.0,
            3140574.7056274847
          ],
          [
            335625.0,
            3140554.7056274847
          ],
          [
            335625.20815280173,
            3140534.7918471983
          ],
          [
            335639.35028842546,
            3140520.6497115744
          ],
          [
            335653.4924240492,
            3140506.507575951
          ],
          [
            335672.86796564405,
            3140505.0
          ],
          [
            335692.86796564405,
            3140505.0
          ],
          [
            335712.86796564405,
            3140505.0
          ],
          [
            335727.6345596729,
            3140492.365440327
          ],
          [
            335741.77669529663,
            3140478.2233047034
          ],
          [
            335755.91883092036,
            3140464.0811690795
          ],
          [
            335770.0609665441,
            3140449.9390334557
          ],
          [
            335784.2031021678,
            3140435.7968978323
          ],
          [
            335798.34523779154,
            3140421.6547622085
          ],
          [
            335812.48737341526,
            3140407.5126265846
          ],
          [
            335826.62950903905,
            3140393.370490961
          ],
          [
            335840.7716446628,
            3140379.2283553374
          ],
          [
            335854.9137802865,
            3140365.0862197136
          ],
          [
            335869.0559159102,
            3140350.9440840897
          ],
          [
            335883.19805153395,
            3140336.801948466
          ],
          [
            335897.3401871577,
            3140322.6598128425
          ],
          [
            335911.4823227814,
            3140308.5176772187
          ],
          [
            335925.62445840513,
            3140294.375541595
          ],
          [
            335939.76659402886,
            3140280.233405971
          ],
          [
            335953.9087296526,
            3140266.0912703476
          ],
          [
            335968.0508652763,
            3140251.9491347237
          ],
          [
            335982.19300090004,
            3140237.8069991
          ],
          [
            335996.3351365238,
            3140223.664863476
          ],
          [
            336010.47727214755,
            3140209.5227278527
          ],
          [
            336024.6194077713,
            3140195.380592229
          ],
          [
            336038.761543395,
            3140181.238456605
          ],
          [
            336052.9036790187,
            3140167.096320981
          ],
          [
            336067.04581464245,
            3140152.954185358
          ],
          [
            336081.1879502662,
            3140138.812049734
          ],
          [
            336095.3300858899,
            3140124.66991411
          ],
          [
            336109.4722215136,
            3140110.5277784863
          ],
          [
            336123.61435713735,
            3140096.3856428624
          ],
          [
            336137.7564927611,
            3140082.243507239
          ],
          [
            336151.8986283848,
            3140068.101371615
          ],
          [
            336166.0407640086,
            3140053.9592359914
          ],
          [
            336180.1828996323,
            3140039.8171003675
          ],
          [
            336194.32503525604,
            3140025.674964744
          ],
          [
            336208.46717087977,
            3140011.5328291203
          ],
          [
            336222.6093065035,
            3139997.3906934964
          ],
          [
            336236.7514421272,
            3139983.2485578726
          ],
          [
            336250.89357775095,
            3139969.106422249
          ],
          [
            336265.0357133747,
            3139954.9642866254
          ],
          [
            336279.1778489984,
            3139940.8221510015
          ],
          [
            336293.3199846221,
            3139926.6800153777
          ],
          [
            336307.46212024585,
            3139912.5378797543
          ],
          [
            336321.60425586964,
            3139898.3957441305
          ],
          [
            336335.74639149336,
            3139884.2536085066
          ],
          [
            336349.8885271171,
            3139870.111472883
          ],
          [
            336364.0306627408,
            3139855.9693372594
          ],
          [
            336378.17279836454,
            3139841.8272016356
          ],
          [
            336392.31493398827,
            3139827.6850660117
          ],
          [
            336406.457069612,
            3139813.542930388
          ],
          [
            336420.5992052357,
            3139799.400794764
          ],
          [
            336434.74134085944,
            3139785.2586591407
          ],
          [
            336448.88347648317,
            3139771.116523517
          ],
          [
            336463.0256121069,
            3139756.974387893
          ],
          [
            336477.1677477306,
            3139742.832252269
          ],
          [
            336491.3098833544,
            3139728.690116646
          ],
          [
            336505.45201897813,
            3139714.547981022
          ],
          [
            336519.59415460186,
            3139700.405845398
          ],
          [
            336533.7362902256,
            3139686.2637097742
          ],
          [
            336547.8784258493,
            3139672.121574151
          ],
          [
            336562.02056147304,
            3139657.979438527
          ],
          [
            336576.16269709676,
            3139643.837302903
          ],
          [
            336590.3048327205,
            3139629.6951672793
          ],
          [
            336604.4469683442,
            3139615.553031656
          ],
          [
            336618.58910396794,
            3139601.410896032
          ],
          [
            336632.73123959167,
            3139587.2687604083
          ],
          [
            336646.8733752154,
            3139573.1266247844
          ],
          [
            336661.0155108392,
            3139558.984489161
          ],
          [
            336675.1576464629,
            3139544.842353537
          ],
          [
            336689.29978208663,
            3139530.7002179134
          ],
          [
            336703.44191771036,
            3139516.5580822895
          ],
          [
            336717.5840533341,
            3139502.415946666
          ],
          [
            336731.7261889578,
            3139488.2738110423
          ],
          [
            336735.0,
            3139485.0
          ]
        ]
      }
    }
  ]
}
